[{"OBJECT_NAME":"STARLINK-33715","OBJECT_ID":"2025-069J","EPOCH":"2026-03-09T11:52:52.040928","MEAN_MOTION":15.30177054,"ECCENTRICITY":0.00011892,"INCLINATION":53.1577,"RA_OF_ASC_NODE":143.4675,"ARG_OF_PERICENTER":75.5343,"MEAN_ANOMALY":284.579,"EPHEMERIS_TYPE":0,"CLASSIFICATION_TYPE":"U","NORAD_CAT_ID":63441,"ELEMENT_SET_NO":999,"REV_AT_EPOCH":5337,"BSTAR":0.00086347613,"MEAN_MOTION_DOT":0.00025283,"MEAN_MOTION_DDOT":0},{"OBJECT_NAME":"CERISE","OBJECT_ID":"1995-033B","EPOCH":"2026-03-09T23:11:27.589056","MEAN_MOTION":15.32047731,"ECCENTRICITY":0.00057118,"INCLINATION":98.325,"RA_OF_ASC_NODE":273.5192,"ARG_OF_PERICENTER":211.8754,"MEAN_ANOMALY":148.214,"EPHEMERIS_TYPE":0,"CLASSIFICATION_TYPE":"U","NORAD_CAT_ID":23606,"ELEMENT_SET_NO":999,"REV_AT_EPOCH":66468,"BSTAR":0.00062940675,"MEAN_MOTION_DOT":0.00019422,"MEAN_MOTION_DDOT":0}]
